FENGYUN 1C DEB          
1 36259U 99025DWL 17346.32285962  .00000869  00000-0  39347-3 0  9990
2 36259  98.8717  24.8623 0003584 232.4844 188.3729 14.24652094465931
